[{"OBJECT_NAME":"STARLINK-31123","OBJECT_ID":"2024-011L","EPOCH":"2026-03-09T05:45:06.050304","MEAN_MOTION":15.30193616,"ECCENTRICITY":0.00010456,"INCLINATION":53.1618,"RA_OF_ASC_NODE":15.6065,"ARG_OF_PERICENTER":65.6642,"MEAN_ANOMALY":294.4468,"EPHEMERIS_TYPE":0,"CLASSIFICATION_TYPE":"U","NORAD_CAT_ID":58775,"ELEMENT_SET_NO":999,"REV_AT_EPOCH":12020,"BSTAR":5.301985e-5,"MEAN_MOTION_DOT":1.211e-5,"MEAN_MOTION_DDOT":0},{"OBJECT_NAME":"CZ-4 DEB","OBJECT_ID":"2006-046L","EPOCH":"2026-03-09T05:26:57.251328","MEAN_MOTION":15.20206122,"ECCENTRICITY":0.00567956,"INCLINATION":97.8211,"RA_OF_ASC_NODE":163.0679,"ARG_OF_PERICENTER":229.3561,"MEAN_ANOMALY":130.2727,"EPHEMERIS_TYPE":0,"CLASSIFICATION_TYPE":"U","NORAD_CAT_ID":35378,"ELEMENT_SET_NO":999,"REV_AT_EPOCH":2541,"BSTAR":0.0021311714,"MEAN_MOTION_DOT":0.00048409,"MEAN_MOTION_DDOT":0}]
